STARLINK-36742          
1 67907U 26036D   26064.91668981  .00060222  00000+0  28695-3 0  9996
2 67907  42.9989 272.9019 0001788 258.8150  73.1598 15.81984816  3046
STARLINK-36827          
1 67908U 26036E   26064.91668981  .00037837  00000+0  18152-3 0  9990
2 67908  42.9987 272.8919 0001520 270.7463  65.4881 15.82005135  3045
STARLINK-36822          
1 67909U 26036F   26064.91668981  .00012103  00000+0  59938-4 0  9998
2 67909  42.9989 272.8812 0001801 249.5894  90.9183 15.82012132  3047
STARLINK-36847          
1 67910U 26036G   26064.91668981  .00001532  00000+0  98078-5 0  9993
2 67910  42.9990 272.8701 0001926 283.3128  61.4735 15.82011466  3047
STARLINK-36736          
1 67911U 26036H   26064.91668981  .00037688  00000+0  18096-3 0  9995
2 67911  42.9991 272.8590 0002075 301.9809  47.0956 15.81987806  3048
STARLINK-36676          
1 67912U 26036J   26064.91668981 -.00022502  00000+0 -10454-3 0  9997
2 67912  42.9990 272.8489 0002126 271.1338  82.1945 15.82027695  3047
STARLINK-36690          
1 67913U 26036K   26064.91668981 -.00009409  00000+0 -42182-4 0  9993
2 67913  42.9989 272.8377 0001832 295.7864  61.8204 15.82022995  3041
STARLINK-36724          
1 67914U 26036L   26064.91668981  .00058487  00000+0  27882-3 0  9991
2 67914  42.9991 272.8156 0002128 303.3862  62.7580 15.81983663  3047
STARLINK-36723          
1 67915U 26036M   26064.91668981 -.00047266  00000+0 -22297-3 0  9992
2 67915  42.9989 272.8270 0001772 280.1182  81.7508 15.82033220  3040
STARLINK-36721          
1 67916U 26036N   26064.91668981  .00032005  00000+0  15407-3 0  9991
2 67916  42.9987 272.8059 0002061 308.7220  61.6903 15.82000516  3044
STARLINK-36722          
1 67917U 26036P   26064.91668981  .00080982  00000+0  38390-3 0  9995
2 67917  42.9976 272.7951 0001971 296.9083  77.7778 15.81994259  3040
STARLINK-36341          
1 67918U 26036Q   26064.91668981 -.00072825  00000+0 -34569-3 0  9999
2 67918  42.9951 272.7727 0001961 262.0287 121.2076 15.82047046  3044
STARLINK-36663          
1 67919U 26036R   26064.91668981  .00020804  00000+0  10107-3 0  9990
2 67919  42.9979 272.7839 0002479 298.9913  79.9751 15.82018452  3046
STARLINK-36375          
1 67920U 26036S   26064.91668981  .00020407  00000+0  99257-4 0  9995
2 67920  42.9963 272.7625 0002109 271.9761 115.5295 15.82006058  3045
STARLINK-36405          
1 67921U 26036T   26064.91668981  .00025949  00000+0  12551-3 0  9993
2 67921  42.9963 272.7518 0001865 271.8528 119.9293 15.81995487  3043
STARLINK-36383          
1 67922U 26036U   26064.91668981 -.00031989  00000+0 -14991-3 0  9997
2 67922  42.9953 272.7408 0002204 289.3221 106.7433 15.82018458  3048
