[{"OBJECT_NAME":"STARLINK-36742","OBJECT_ID":"2026-036D","EPOCH":"2026-03-05T22:00:01.999584","MEAN_MOTION":15.81984816,"ECCENTRICITY":0.00017882,"INCLINATION":42.9989,"RA_OF_ASC_NODE":272.9019,"ARG_OF_PERICENTER":258.815,"MEAN_ANOMALY":73.1598,"EPHEMERIS_TYPE":0,"CLASSIFICATION_TYPE":"U","NORAD_CAT_ID":67907,"ELEMENT_SET_NO":999,"REV_AT_EPOCH":304,"BSTAR":0.00028694842,"MEAN_MOTION_DOT":0.00060222,"MEAN_MOTION_DDOT":0},{"OBJECT_NAME":"STARLINK-36827","OBJECT_ID":"2026-036E","EPOCH":"2026-03-05T22:00:01.999584","MEAN_MOTION":15.82005135,"ECCENTRICITY":0.00015209,"INCLINATION":42.9987,"RA_OF_ASC_NODE":272.8919,"ARG_OF_PERICENTER":270.7463,"MEAN_ANOMALY":65.4881,"EPHEMERIS_TYPE":0,"CLASSIFICATION_TYPE":"U","NORAD_CAT_ID":67908,"ELEMENT_SET_NO":999,"REV_AT_EPOCH":304,"BSTAR":0.00018152463,"MEAN_MOTION_DOT":0.00037837,"MEAN_MOTION_DDOT":0},{"OBJECT_NAME":"STARLINK-36822","OBJECT_ID":"2026-036F","EPOCH":"2026-03-05T22:00:01.999584","MEAN_MOTION":15.82012132,"ECCENTRICITY":0.00018011,"INCLINATION":42.9989,"RA_OF_ASC_NODE":272.8812,"ARG_OF_PERICENTER":249.5894,"MEAN_ANOMALY":90.9183,"EPHEMERIS_TYPE":0,"CLASSIFICATION_TYPE":"U","NORAD_CAT_ID":67909,"ELEMENT_SET_NO":999,"REV_AT_EPOCH":304,"BSTAR":5.9937805e-5,"MEAN_MOTION_DOT":0.00012103,"MEAN_MOTION_DDOT":0},{"OBJECT_NAME":"STARLINK-36847","OBJECT_ID":"2026-036G","EPOCH":"2026-03-05T22:00:01.999584","MEAN_MOTION":15.82011466,"ECCENTRICITY":0.00019261,"INCLINATION":42.999,"RA_OF_ASC_NODE":272.8701,"ARG_OF_PERICENTER":283.3128,"MEAN_ANOMALY":61.4735,"EPHEMERIS_TYPE":0,"CLASSIFICATION_TYPE":"U","NORAD_CAT_ID":67910,"ELEMENT_SET_NO":999,"REV_AT_EPOCH":304,"BSTAR":9.807773e-6,"MEAN_MOTION_DOT":1.532e-5,"MEAN_MOTION_DDOT":0},{"OBJECT_NAME":"STARLINK-36736","OBJECT_ID":"2026-036H","EPOCH":"2026-03-05T22:00:01.999584","MEAN_MOTION":15.81987806,"ECCENTRICITY":0.00020756,"INCLINATION":42.9991,"RA_OF_ASC_NODE":272.859,"ARG_OF_PERICENTER":301.9809,"MEAN_ANOMALY":47.0956,"EPHEMERIS_TYPE":0,"CLASSIFICATION_TYPE":"U","NORAD_CAT_ID":67911,"ELEMENT_SET_NO":999,"REV_AT_EPOCH":304,"BSTAR":0.0001809636,"MEAN_MOTION_DOT":0.00037688,"MEAN_MOTION_DDOT":0},{"OBJECT_NAME":"STARLINK-36676","OBJECT_ID":"2026-036J","EPOCH":"2026-03-05T22:00:01.999584","MEAN_MOTION":15.82027695,"ECCENTRICITY":0.00021268,"INCLINATION":42.999,"RA_OF_ASC_NODE":272.8489,"ARG_OF_PERICENTER":271.1338,"MEAN_ANOMALY":82.1945,"EPHEMERIS_TYPE":0,"CLASSIFICATION_TYPE":"U","NORAD_CAT_ID":67912,"ELEMENT_SET_NO":999,"REV_AT_EPOCH":304,"BSTAR":-0.00010453518,"MEAN_MOTION_DOT":-0.00022502,"MEAN_MOTION_DDOT":0},{"OBJECT_NAME":"STARLINK-36690","OBJECT_ID":"2026-036K","EPOCH":"2026-03-05T22:00:01.999584","MEAN_MOTION":15.82022995,"ECCENTRICITY":0.00018323,"INCLINATION":42.9989,"RA_OF_ASC_NODE":272.8377,"ARG_OF_PERICENTER":295.7864,"MEAN_ANOMALY":61.8204,"EPHEMERIS_TYPE":0,"CLASSIFICATION_TYPE":"U","NORAD_CAT_ID":67913,"ELEMENT_SET_NO":999,"REV_AT_EPOCH":304,"BSTAR":-4.218194e-5,"MEAN_MOTION_DOT":-9.409e-5,"MEAN_MOTION_DDOT":0},{"OBJECT_NAME":"STARLINK-36724","OBJECT_ID":"2026-036L","EPOCH":"2026-03-05T22:00:01.999584","MEAN_MOTION":15.81983663,"ECCENTRICITY":0.00021288,"INCLINATION":42.9991,"RA_OF_ASC_NODE":272.8156,"ARG_OF_PERICENTER":303.3862,"MEAN_ANOMALY":62.758,"EPHEMERIS_TYPE":0,"CLASSIFICATION_TYPE":"U","NORAD_CAT_ID":67914,"ELEMENT_SET_NO":999,"REV_AT_EPOCH":304,"BSTAR":0.0002788156,"MEAN_MOTION_DOT":0.00058487,"MEAN_MOTION_DDOT":0},{"OBJECT_NAME":"STARLINK-36723","OBJECT_ID":"2026-036M","EPOCH":"2026-03-05T22:00:01.999584","MEAN_MOTION":15.8203322,"ECCENTRICITY":0.0001772,"INCLINATION":42.9989,"RA_OF_ASC_NODE":272.827,"ARG_OF_PERICENTER":280.1182,"MEAN_ANOMALY":81.7508,"EPHEMERIS_TYPE":0,"CLASSIFICATION_TYPE":"U","NORAD_CAT_ID":67915,"ELEMENT_SET_NO":999,"REV_AT_EPOCH":304,"BSTAR":-0.00022296872,"MEAN_MOTION_DOT":-0.00047266,"MEAN_MOTION_DDOT":0},{"OBJECT_NAME":"STARLINK-36721","OBJECT_ID":"2026-036N","EPOCH":"2026-03-05T22:00:01.999584","MEAN_MOTION":15.82000516,"ECCENTRICITY":0.00020613,"INCLINATION":42.9987,"RA_OF_ASC_NODE":272.8059,"ARG_OF_PERICENTER":308.722,"MEAN_ANOMALY":61.6903,"EPHEMERIS_TYPE":0,"CLASSIFICATION_TYPE":"U","NORAD_CAT_ID":67916,"ELEMENT_SET_NO":999,"REV_AT_EPOCH":304,"BSTAR":0.00015406681,"MEAN_MOTION_DOT":0.00032005,"MEAN_MOTION_DDOT":0},{"OBJECT_NAME":"STARLINK-36722","OBJECT_ID":"2026-036P","EPOCH":"2026-03-05T22:00:01.999584","MEAN_MOTION":15.81994259,"ECCENTRICITY":0.00019719,"INCLINATION":42.9976,"RA_OF_ASC_NODE":272.7951,"ARG_OF_PERICENTER":296.9083,"MEAN_ANOMALY":77.7778,"EPHEMERIS_TYPE":0,"CLASSIFICATION_TYPE":"U","NORAD_CAT_ID":67917,"ELEMENT_SET_NO":999,"REV_AT_EPOCH":304,"BSTAR":0.0003839033,"MEAN_MOTION_DOT":0.00080982,"MEAN_MOTION_DDOT":0},{"OBJECT_NAME":"STARLINK-36341","OBJECT_ID":"2026-036Q","EPOCH":"2026-03-05T22:00:01.999584","MEAN_MOTION":15.82047046,"ECCENTRICITY":0.00019619,"INCLINATION":42.9951,"RA_OF_ASC_NODE":272.7727,"ARG_OF_PERICENTER":262.0287,"MEAN_ANOMALY":121.2076,"EPHEMERIS_TYPE":0,"CLASSIFICATION_TYPE":"U","NORAD_CAT_ID":67918,"ELEMENT_SET_NO":999,"REV_AT_EPOCH":304,"BSTAR":-0.00034569162,"MEAN_MOTION_DOT":-0.00072825,"MEAN_MOTION_DDOT":0},{"OBJECT_NAME":"STARLINK-36663","OBJECT_ID":"2026-036R","EPOCH":"2026-03-05T22:00:01.999584","MEAN_MOTION":15.82018452,"ECCENTRICITY":0.00024799,"INCLINATION":42.9979,"RA_OF_ASC_NODE":272.7839,"ARG_OF_PERICENTER":298.9913,"MEAN_ANOMALY":79.9751,"EPHEMERIS_TYPE":0,"CLASSIFICATION_TYPE":"U","NORAD_CAT_ID":67919,"ELEMENT_SET_NO":999,"REV_AT_EPOCH":304,"BSTAR":0.00010107197,"MEAN_MOTION_DOT":0.00020804,"MEAN_MOTION_DDOT":0},{"OBJECT_NAME":"STARLINK-36375","OBJECT_ID":"2026-036S","EPOCH":"2026-03-05T22:00:01.999584","MEAN_MOTION":15.82006058,"ECCENTRICITY":0.00021093,"INCLINATION":42.9963,"RA_OF_ASC_NODE":272.7625,"ARG_OF_PERICENTER":271.9761,"MEAN_ANOMALY":115.5295,"EPHEMERIS_TYPE":0,"CLASSIFICATION_TYPE":"U","NORAD_CAT_ID":67920,"ELEMENT_SET_NO":999,"REV_AT_EPOCH":304,"BSTAR":9.9257086e-5,"MEAN_MOTION_DOT":0.00020407,"MEAN_MOTION_DDOT":0},{"OBJECT_NAME":"STARLINK-36405","OBJECT_ID":"2026-036T","EPOCH":"2026-03-05T22:00:01.999584","MEAN_MOTION":15.81995487,"ECCENTRICITY":0.00018653,"INCLINATION":42.9963,"RA_OF_ASC_NODE":272.7518,"ARG_OF_PERICENTER":271.8528,"MEAN_ANOMALY":119.9293,"EPHEMERIS_TYPE":0,"CLASSIFICATION_TYPE":"U","NORAD_CAT_ID":67921,"ELEMENT_SET_NO":999,"REV_AT_EPOCH":304,"BSTAR":0.00012550856,"MEAN_MOTION_DOT":0.00025949,"MEAN_MOTION_DDOT":0},{"OBJECT_NAME":"STARLINK-36383","OBJECT_ID":"2026-036U","EPOCH":"2026-03-05T22:00:01.999584","MEAN_MOTION":15.82018458,"ECCENTRICITY":0.00022049,"INCLINATION":42.9953,"RA_OF_ASC_NODE":272.7408,"ARG_OF_PERICENTER":289.3221,"MEAN_ANOMALY":106.7433,"EPHEMERIS_TYPE":0,"CLASSIFICATION_TYPE":"U","NORAD_CAT_ID":67922,"ELEMENT_SET_NO":999,"REV_AT_EPOCH":304,"BSTAR":-0.00014990624,"MEAN_MOTION_DOT":-0.00031989,"MEAN_MOTION_DDOT":0}]
